start=new Date('2022-02-02T00:00:00.000Z').valueOf();
sats=[{"REV_AT_EPOCH":"264","BSTAR":"-0.00471020000000","GP_ID":"195126483","CENTER_NAME":"EARTH","RA_OF_ASC_NODE":"205.8891","ELEMENT_SET_NO":"999","APOAPSIS":"331.147","TIME_SYSTEM":"UTC","RCS_SIZE":"MEDIUM","MEAN_MOTION":"15.80027148","INCLINATION":"53.2176","EPOCH":"2022-02-01T22:00:00.999936","NORAD_CAT_ID":"51135","TLE_LINE1":"1 51135U 22005AH  22032.91667824 -.00814757  00000-0 -47102-2 0  9996","LAUNCH_DATE":"2022-01-19","SITE":"AFETR","PERIAPSIS":"329.585","SEMIMAJOR_AXIS":"6708.501","MEAN_ANOMALY":"153.4072","OBJECT_NAME":"STARLINK-3363","REF_FRAME":"TEME","MEAN_MOTION_DDOT":"0.0000000000000","PERIOD":"91.138","ARG_OF_PERICENTER":"78.5006","MEAN_MOTION_DOT":"-0.00814757","FILE":"3289675","COUNTRY_CODE":"US","DECAY_DATE":null,"TLE_LINE2":"2 51135  53.2176 205.8891 0001164  78.5006 153.4072 15.80027148  2642","OBJECT_ID":"2022-005AH","EPHEMERIS_TYPE":"0","CLASSIFICATION_TYPE":"U","ECCENTRICITY":"0.00011640","OBJECT_TYPE":"PAYLOAD","MEAN_ELEMENT_THEORY":"SGP4"},{"TLE_LINE2":"2 51136  53.2174 205.3602 0044873 214.1971 283.8932 15.96725817  3503","DECAY_DATE":null,"OBJECT_ID":"2022-005AJ","MEAN_MOTION_DDOT":"0.0001173600000","PERIOD":"90.185","MEAN_MOTION_DOT":"-0.00568749","ARG_OF_PERICENTER":"214.1971","COUNTRY_CODE":"US","FILE":"3289534","MEAN_ELEMENT_THEORY":"SGP4","CLASSIFICATION_TYPE":"U","EPHEMERIS_TYPE":"0","OBJECT_TYPE":"PAYLOAD","ECCENTRICITY":"0.00448730","SITE":"AFETR","PERIAPSIS":"253.619","OBJECT_NAME":"STARLINK-3253","REF_FRAME":"TEME","SEMIMAJOR_AXIS":"6661.647","MEAN_ANOMALY":"283.8932","EPOCH":"2022-02-01T22:00:00.999936","NORAD_CAT_ID":"51136","INCLINATION":"53.2174","TLE_LINE1":"1 51136U 22005AJ  22032.91667824 -.00568749  11736-3 -11595-2 0  9992","LAUNCH_DATE":"2022-01-19","REV_AT_EPOCH":"350","BSTAR":"-0.00115950000000","APOAPSIS":"313.405","TIME_SYSTEM":"UTC","MEAN_MOTION":"15.96725817","RCS_SIZE":"MEDIUM","CENTER_NAME":"EARTH","GP_ID":"195098616","RA_OF_ASC_NODE":"205.3602","ELEMENT_SET_NO":"999"},{"BSTAR":"-0.00368160000000","REV_AT_EPOCH":"265","RCS_SIZE":"MEDIUM","MEAN_MOTION":"15.79938654","TIME_SYSTEM":"UTC","APOAPSIS":"331.433","ELEMENT_SET_NO":"999","GP_ID":"195126100","CENTER_NAME":"EARTH","RA_OF_ASC_NODE":"205.8866","NORAD_CAT_ID":"51137","EPOCH":"2022-02-01T22:00:00.999936","INCLINATION":"53.2182","LAUNCH_DATE":"2022-01-19","TLE_LINE1":"1 51137U 22005AK  22032.91667824 -.00646879  00000-0 -36816-2 0  9996","PERIAPSIS":"329.799","SITE":"AFETR","REF_FRAME":"TEME","OBJECT_NAME":"STARLINK-3180","MEAN_ANOMALY":"159.7379","SEMIMAJOR_AXIS":"6708.751","OBJECT_ID":"2022-005AK","DECAY_DATE":null,"TLE_LINE2":"2 51137  53.2182 205.8866 0001218  74.2035 159.7379 15.79938654  2659","FILE":"3289675","COUNTRY_CODE":"US","PERIOD":"91.143","ARG_OF_PERICENTER":"74.2035","MEAN_MOTION_DDOT":"0.0000000000000","MEAN_MOTION_DOT":"-0.00646879","MEAN_ELEMENT_THEORY":"SGP4","OBJECT_TYPE":"PAYLOAD","ECCENTRICITY":"0.00012180","EPHEMERIS_TYPE":"0","CLASSIFICATION_TYPE":"U"},{"EPHEMERIS_TYPE":"0","CLASSIFICATION_TYPE":"U","OBJECT_TYPE":"PAYLOAD","ECCENTRICITY":"0.00012200","MEAN_ELEMENT_THEORY":"SGP4","MEAN_MOTION_DDOT":"0.0000000000000","PERIOD":"91.144","MEAN_MOTION_DOT":"-0.00654226","ARG_OF_PERICENTER":"77.3000","COUNTRY_CODE":"US","FILE":"3289675","TLE_LINE2":"2 51138  53.2182 205.8898 0001220  77.3000 155.1762 15.79913031  2595","DECAY_DATE":null,"OBJECT_ID":"2022-005AL","SEMIMAJOR_AXIS":"6708.824","MEAN_ANOMALY":"155.1762","OBJECT_NAME":"STARLINK-3177","REF_FRAME":"TEME","SITE":"AFETR","PERIAPSIS":"329.870","TLE_LINE1":"1 51138U 22005AL  22032.91667824 -.00654226  00000-0 -37310-2 0  9992","LAUNCH_DATE":"2022-01-19","INCLINATION":"53.2182","EPOCH":"2022-02-01T22:00:00.999936","NORAD_CAT_ID":"51138","RA_OF_ASC_NODE":"205.8898","GP_ID":"195126630","CENTER_NAME":"EARTH","ELEMENT_SET_NO":"999","TIME_SYSTEM":"UTC","APOAPSIS":"331.507","MEAN_MOTION":"15.79913031","RCS_SIZE":"MEDIUM","REV_AT_EPOCH":"259","BSTAR":"-0.00373100000000"},{"NORAD_CAT_ID":"51139","EPOCH":"2022-02-01T22:00:00.999936","INCLINATION":"53.2183","LAUNCH_DATE":"2022-01-19","TLE_LINE1":"1 51139U 22005AM  22032.91667824 -.00688719  00000-0 -39290-2 0  9996","BSTAR":"-0.00392900000000","REV_AT_EPOCH":"265","MEAN_MOTION":"15.79993820","RCS_SIZE":"MEDIUM","TIME_SYSTEM":"UTC","APOAPSIS":"331.256","ELEMENT_SET_NO":"999","RA_OF_ASC_NODE":"205.8848","GP_ID":"195126177","CENTER_NAME":"EARTH","OBJECT_ID":"2022-005AM","DECAY_DATE":null,"TLE_LINE2":"2 51139  53.2183 205.8848 0001187  70.9405 163.9288 15.79993820  2653","FILE":"3289675","COUNTRY_CODE":"US","PERIOD":"91.140","MEAN_MOTION_DDOT":"0.0000000000000","ARG_OF_PERICENTER":"70.9405","MEAN_MOTION_DOT":"-0.00688719","MEAN_ELEMENT_THEORY":"SGP4","OBJECT_TYPE":"PAYLOAD","ECCENTRICITY":"0.00011870","EPHEMERIS_TYPE":"0","CLASSIFICATION_TYPE":"U","PERIAPSIS":"329.664","SITE":"AFETR","REF_FRAME":"TEME","OBJECT_NAME":"STARLINK-3172","MEAN_ANOMALY":"163.9288","SEMIMAJOR_AXIS":"6708.595"},{"MEAN_ANOMALY":"159.7171","SEMIMAJOR_AXIS":"6708.729","REF_FRAME":"TEME","OBJECT_NAME":"STARLINK-3175","PERIAPSIS":"329.725","SITE":"AFETR","OBJECT_TYPE":"PAYLOAD","ECCENTRICITY":"0.00012950","CLASSIFICATION_TYPE":"U","EPHEMERIS_TYPE":"0","MEAN_ELEMENT_THEORY":"SGP4","COUNTRY_CODE":"US","FILE":"3289675","MEAN_MOTION_DDOT":"0.0000000000000","PERIOD":"91.142","MEAN_MOTION_DOT":"-0.00668597","ARG_OF_PERICENTER":"73.7013","OBJECT_ID":"2022-005AN","TLE_LINE2":"2 51140  53.2182 205.8877 0001295  73.7013 159.7171 15.79946483  2659","DECAY_DATE":null,"ELEMENT_SET_NO":"999","GP_ID":"195126246","RA_OF_ASC_NODE":"205.8877","CENTER_NAME":"EARTH","MEAN_MOTION":"15.79946483","RCS_SIZE":"MEDIUM","TIME_SYSTEM":"UTC","APOAPSIS":"331.463","BSTAR":"-0.00381340000000","REV_AT_EPOCH":"265","LAUNCH_DATE":"2022-01-19","TLE_LINE1":"1 51140U 22005AN  22032.91667824 -.00668597  00000-0 -38134-2 0  9996","INCLINATION":"53.2182","NORAD_CAT_ID":"51140","EPOCH":"2022-02-01T22:00:00.999936"},{"TIME_SYSTEM":"UTC","APOAPSIS":"331.139","RCS_SIZE":"LARGE","MEAN_MOTION":"15.80021596","GP_ID":"195126407","CENTER_NAME":"EARTH","RA_OF_ASC_NODE":"205.8827","ELEMENT_SET_NO":"999","REV_AT_EPOCH":"266","BSTAR":"-0.00394350000000","TLE_LINE1":"1 51141U 22005AP  22032.91667824 -.00691876  00000-0 -39435-2 0  9998","LAUNCH_DATE":"2022-01-19","EPOCH":"2022-02-01T22:00:00.999936","NORAD_CAT_ID":"51141","INCLINATION":"53.2182","OBJECT_NAME":"STARLINK-3179","REF_FRAME":"TEME","SEMIMAJOR_AXIS":"6708.517","MEAN_ANOMALY":"160.2637","SITE":"AFETR","PERIAPSIS":"329.624","MEAN_ELEMENT_THEORY":"SGP4","CLASSIFICATION_TYPE":"U","EPHEMERIS_TYPE":"0","OBJECT_TYPE":"PAYLOAD","ECCENTRICITY":"0.00011290","TLE_LINE2":"2 51141  53.2182 205.8827 0001129  75.5069 160.2637 15.80021596  2668","DECAY_DATE":null,"OBJECT_ID":"2022-005AP","MEAN_MOTION_DOT":"-0.00691876","PERIOD":"91.138","MEAN_MOTION_DDOT":"0.0000000000000","ARG_OF_PERICENTER":"75.5069","COUNTRY_CODE":"US","FILE":"3289675"},{"APOAPSIS":"331.067","TIME_SYSTEM":"UTC","RCS_SIZE":"MEDIUM","MEAN_MOTION":"15.80048255","CENTER_NAME":"EARTH","GP_ID":"195126323","RA_OF_ASC_NODE":"205.8871","ELEMENT_SET_NO":"999","REV_AT_EPOCH":"264","BSTAR":"-0.00470610000000","TLE_LINE1":"1 51142U 22005AQ  22032.91667824 -.00814825  00000-0 -47061-2 0  9994","LAUNCH_DATE":"2022-01-19","EPOCH":"2022-02-01T22:00:00.999936","NORAD_CAT_ID":"51142","INCLINATION":"53.2176","OBJECT_NAME":"STARLINK-3369","REF_FRAME":"TEME","SEMIMAJOR_AXIS":"6708.441","MEAN_ANOMALY":"153.3272","SITE":"AFETR","PERIAPSIS":"329.545","MEAN_ELEMENT_THEORY":"SGP4","CLASSIFICATION_TYPE":"U","EPHEMERIS_TYPE":"0","OBJECT_TYPE":"PAYLOAD","ECCENTRICITY":"0.00011350","TLE_LINE2":"2 51142  53.2176 205.8871 0001135  79.5458 153.3272 15.80048255  2641","DECAY_DATE":null,"OBJECT_ID":"2022-005AQ","PERIOD":"91.136","MEAN_MOTION_DOT":"-0.00814825","MEAN_MOTION_DDOT":"0.0000000000000","ARG_OF_PERICENTER":"79.5458","COUNTRY_CODE":"US","FILE":"3289675"},{"REV_AT_EPOCH":"265","BSTAR":"-0.00369460000000","GP_ID":"195126484","CENTER_NAME":"EARTH","RA_OF_ASC_NODE":"205.8796","ELEMENT_SET_NO":"999","APOAPSIS":"331.253","TIME_SYSTEM":"UTC","MEAN_MOTION":"15.80018809","RCS_SIZE":"MEDIUM","INCLINATION":"53.2182","EPOCH":"2022-02-01T22:00:00.999936","NORAD_CAT_ID":"51143","TLE_LINE1":"1 51143U 22005AR  22032.91667824 -.00651245  00000-0 -36946-2 0  9990","LAUNCH_DATE":"2022-01-19","SITE":"AFETR","PERIAPSIS":"329.526","SEMIMAJOR_AXIS":"6708.524","MEAN_ANOMALY":"162.3049","OBJECT_NAME":"STARLINK-3184","REF_FRAME":"TEME","PERIOD":"91.138","MEAN_MOTION_DOT":"-0.00651245","MEAN_MOTION_DDOT":"0.0000000000000","ARG_OF_PERICENTER":"74.9584","COUNTRY_CODE":"US","FILE":"3289675","TLE_LINE2":"2 51143  53.2182 205.8796 0001287  74.9584 162.3049 15.80018809  2657","DECAY_DATE":null,"OBJECT_ID":"2022-005AR","CLASSIFICATION_TYPE":"U","EPHEMERIS_TYPE":"0","OBJECT_TYPE":"PAYLOAD","ECCENTRICITY":"0.00012870","MEAN_ELEMENT_THEORY":"SGP4"},{"LAUNCH_DATE":"2022-01-19","TLE_LINE1":"1 51144U 22005AS  22032.91667824 -.00713107  00000-0 -40744-2 0  9998","NORAD_CAT_ID":"51144","EPOCH":"2022-02-01T22:00:00.999936","INCLINATION":"53.2183","MEAN_MOTION":"15.80022265","RCS_SIZE":"MEDIUM","APOAPSIS":"331.185","TIME_SYSTEM":"UTC","ELEMENT_SET_NO":"999","RA_OF_ASC_NODE":"205.8838","GP_ID":"195126553","CENTER_NAME":"EARTH","BSTAR":"-0.00407440000000","REV_AT_EPOCH":"266","MEAN_ELEMENT_THEORY":"SGP4","OBJECT_TYPE":"PAYLOAD","ECCENTRICITY":"0.00012010","EPHEMERIS_TYPE":"0","CLASSIFICATION_TYPE":"U","OBJECT_ID":"2022-005AS","TLE_LINE2":"2 51144  53.2183 205.8838 0001201  66.8641 168.4750 15.80022265  2664","DECAY_DATE":null,"COUNTRY_CODE":"US","FILE":"3289675","PERIOD":"91.138","ARG_OF_PERICENTER":"66.8641","MEAN_MOTION_DDOT":"0.0000000000000","MEAN_MOTION_DOT":"-0.00713107","REF_FRAME":"TEME","OBJECT_NAME":"STARLINK-3185","MEAN_ANOMALY":"168.4750","SEMIMAJOR_AXIS":"6708.515","PERIAPSIS":"329.574","SITE":"AFETR"}];
